COSMOS 1933             
1 18958U 88020A   25355.32708280  .00003561  00000+0  17778-3 0  9996
2 18958  82.5136 328.3930 0006229 105.2197 254.9725 15.17175337 38342
SL-3 R/B                
1 19046U 88032B   25355.55824079  .00004243  00000+0  20517-3 0  9991
2 19046  97.5087 334.2179 0027641 142.8961 217.4192 15.18821963 40248
SL-16 R/B               
1 19120U 88039B   25355.13216648  .00000183  00000+0  10925-3 0  9993
2 19120  71.0133 234.6537 0019573 101.8926 258.4396 14.19598422947239
COSMOS 1953             
1 19210U 88050A   25351.75027580  .00004793  00000+0  17925-3 0  9993
2 19210  82.5093 240.5536 0013540  56.0210 304.2313 15.26995692 25270
SL-8 R/B                
1 19257U 88053B   25355.46139459  .00000217  00000+0  78744-4 0  9992
2 19257  74.0472 256.6458 0018986  97.4020  76.0210 14.38864130965341
COSMOS 1975             
1 19573U 88093A   25355.63012779  .00005445  00000+0  20639-3 0  9998
2 19573  82.5189 195.9277 0013031  84.7337 275.5388 15.26585052  7497
SL-14 R/B               
1 19574U 88093B   25355.58934310  .00000435  00000+0  47460-4 0  9993
2 19574  82.5315 115.3628 0019358 298.5744  71.8047 14.85557887989442
SL-16 R/B               
1 19650U 88102B   25355.35855157  .00000258  00000+0  15440-3 0  9990
2 19650  71.0003 316.3079 0012567 137.0882 223.1224 14.16140198915807
INTERCOSMOS 24          
1 20261U 89080A   25355.40384482  .00000606  00000+0  16911-3 0  9991
2 20261  82.6051 155.3199 1188987 114.4300 258.5408 12.59453426656946
SL-14 R/B               
1 20262U 89080C   25355.14485728  .00000285  00000+0  81602-4 0  9991
2 20262  82.5919 223.6253 1230518   4.3821 356.6933 12.50419812650334
DELTA 1 R/B             
1 20323U 89089B   25355.60706860  .00000270  00000+0  75732-4 0  9993
2 20323  97.0745 210.4389 0069429  10.5696 349.6942 14.50578739884419
ARIANE 40 R/B           
1 20443U 90005H   25355.14803992  .00000206  00000+0  78990-4 0  9997
2 20443  98.3232  53.0881 0011272  83.1050 277.1421 14.39804243881501
